stk.v.11.0
WrittenBy    formation-sat-exporter

BEGIN Ephemeris
    NumberOfEphemerisPoints 181
    ScenarioEpoch 21 Mar 2026 07:38:40.000000000 UTCG
    InterpolationMethod     Lagrange
    InterpolationOrder      7
    CentralBody             Earth
    CoordinateSystem        TEME
    DistanceUnit            Kilometers

    BEGIN EphemerisTimePosVel
        62.000000000  5.58068542811888e+03 -1.41410404899640e+03  3.87418874756159e+03 -4.34817803798053e+00 -1.59523686454869e-01  6.20523479975450e+00
        63.000000000  5.57633391980654e+03 -1.41426272856521e+03  3.88039167494741e+03 -4.35483772858592e+00 -1.57835417666370e-01  6.20061873595931e+00
        64.000000000  5.57197575437948e+03 -1.41441971976507e+03  3.88658998256221e+03 -4.36149226591007e+00 -1.56146948888472e-01  6.19599525833797e+00
        65.000000000  5.56761093699509e+03 -1.41457502239700e+03  3.89278366299468e+03 -4.36814164197571e+00 -1.54458282124602e-01  6.19136437226682e+00
        66.000000000  5.56323947281875e+03 -1.41472863626399e+03  3.89897270883884e+03 -4.37478584881128e+00 -1.52769419378511e-01  6.18672608313117e+00
        67.000000000  5.55886136702333e+03 -1.41488056117109e+03  3.90515711269486e+03 -4.38142487845173e+00 -1.51080362654090e-01  6.18208039632471e+00
        68.000000000  5.55447662479029e+03 -1.41503079692531e+03  3.91133686716733e+03 -4.38805872293672e+00 -1.49391113955783e-01  6.17742731725075e+00
        69.000000000  5.55008525130845e+03 -1.41517934333568e+03  3.91751196486713e+03 -4.39468737431261e+00 -1.47701675288120e-01  6.17276685132088e+00
        70.000000000  5.54568725177516e+03 -1.41532620021324e+03  3.92368239840975e+03 -4.40131082463067e+00 -1.46012048656170e-01  6.16809900395623e+00
        71.000000000  5.54128263139548e+03 -1.41547136737101e+03  3.92984816041644e+03 -4.40792906594827e+00 -1.44322236065213e-01  6.16342378058654e+00
        72.000000000  5.53687139538218e+03 -1.41561484462405e+03  3.93600924351415e+03 -4.41454209032888e+00 -1.42632239520768e-01  6.15874118665030e+00
        73.000000000  5.53245354895633e+03 -1.41575663178942e+03  3.94216564033485e+03 -4.42114988984127e+00 -1.40942061028765e-01  6.15405122759519e+00
        74.000000000  5.52802909734678e+03 -1.41589672868613e+03  3.94831734351610e+03 -4.42775245656021e+00 -1.39251702595426e-01  6.14935390887770e+00
        75.000000000  5.52359804579018e+03 -1.41603513513529e+03  3.95446434570112e+03 -4.43434978256646e+00 -1.37561166227185e-01  6.14464923596302e+00
        76.000000000  5.51916039953113e+03 -1.41617185095995e+03  3.96060663953853e+03 -4.44094185994655e+00 -1.35870453930820e-01  6.13993721432531e+00
        77.000000000  5.51471616382239e+03 -1.41630687598518e+03  3.96674421768212e+03 -4.44752868079247e+00 -1.34179567713478e-01  6.13521784944785e+00
        78.000000000  5.51026534392434e+03 -1.41644021003807e+03  3.97287707279154e+03 -4.45411023720248e+00 -1.32488509582503e-01  6.13049114682249e+00
        79.000000000  5.50580794510541e+03 -1.41657185294771e+03  3.97900519753171e+03 -4.46068652128048e+00 -1.30797281545587e-01  6.12575711195011e+00
        80.000000000  5.50134397264186e+03 -1.41670180454519e+03  3.98512858457318e+03 -4.46725752513629e+00 -1.29105885610691e-01  6.12101575034039e+00
        81.000000000  5.49687343181784e+03 -1.41683006466363e+03  3.99124722659199e+03 -4.47382324088564e+00 -1.27414323786050e-01  6.11626706751185e+00
        82.000000000  5.49239632792541e+03 -1.41695663313814e+03  3.99736111626965e+03 -4.48038366065005e+00 -1.25722598080214e-01  6.11151106899193e+00
        83.000000000  5.48791266626455e+03 -1.41708150980583e+03  4.00347024629317e+03 -4.48693877655690e+00 -1.24030710502026e-01  6.10674776031693e+00
        84.000000000  5.48342245214298e+03 -1.41720469450585e+03  4.00957460935526e+03 -4.49348858073965e+00 -1.22338663060552e-01  6.10197714703188e+00
        85.000000000  5.47892569087629e+03 -1.41732618707933e+03  4.01567419815419e+03 -4.50003306533768e+00 -1.20646457765148e-01  6.09719923469063e+00
        86.000000000  5.47442238778809e+03 -1.41744598736943e+03  4.02176900539352e+03 -4.50657222249600e+00 -1.18954096625508e-01  6.09241402885605e+00
        87.000000000  5.46991254820974e+03 -1.41756409522131e+03  4.02785902378258e+03 -4.51310604436575e+00 -1.17261581651558e-01  6.08762153509972e+00
        88.000000000  5.46539617748044e+03 -1.41768051048213e+03  4.03394424603622e+03 -4.51963452310399e+00 -1.15568914853491e-01  6.08282175900204e+00
        89.000000000  5.46087328094719e+03 -1.41779523300108e+03  4.04002466487498e+03 -4.52615765087379e+00 -1.13876098241762e-01  6.07801470615219e+00
        90.000000000  5.45634386396495e+03 -1.41790826262935e+03  4.04610027302482e+03 -4.53267541984403e+00 -1.12183133827133e-01  6.07320038214825e+00
        91.000000000  5.45180793189638e+03 -1.41801959922014e+03  4.05217106321743e+03 -4.53918782218969e+00 -1.10490023620589e-01  6.06837879259703e+00
        92.000000000  5.44726549011200e+03 -1.41812924262867e+03  4.05823702819011e+03 -4.54569485009171e+00 -1.08796769633379e-01  6.06354994311415e+00
        93.000000000  5.44271654399039e+03 -1.41823719271215e+03  4.06429816068542e+03 -4.55219649573664e+00 -1.07103373877123e-01  6.05871383932429e+00
        94.000000000  5.43816109891718e+03 -1.41834344932984e+03  4.07035445345258e+03 -4.55869275131816e+00 -1.05409838363392e-01  6.05387048686009e+00
        95.000000000  5.43359916028680e+03 -1.41844801234297e+03  4.07640589924511e+03 -4.56518360903448e+00 -1.03716165104410e-01  6.04901989136405e+00
        96.000000000  5.42903073350088e+03 -1.41855088161481e+03  4.08245249082300e+03 -4.57166906109073e+00 -1.02022356112406e-01  6.04416205848682e+00
        97.000000000  5.42445582396904e+03 -1.41865205701062e+03  4.08849422095159e+03 -4.57814909969774e+00 -1.00328413399957e-01  6.03929699388803e+00
        98.000000000  5.41987443710864e+03 -1.41875153839771e+03  4.09453108240199e+03 -4.58462371707249e+00 -9.86343389798449e-02  6.03442470323600e+00
        99.000000000  5.41528657834458e+03 -1.41884932564535e+03  4.10056306795126e+03 -4.59109290543831e+00 -9.69401348650376e-02  6.02954519220758e+00
        100.000000000  5.41069225310985e+03 -1.41894541862488e+03  4.10659017038173e+03 -4.59755665702413e+00 -9.52458030688465e-02  6.02465846648874e+00
        101.000000000  5.40609146684527e+03 -1.41903981720961e+03  4.11261238248137e+03 -4.60401496406492e+00 -9.35513456048479e-02  6.01976453177421e+00
        102.000000000  5.40148422499903e+03 -1.41913252127488e+03  4.11862969704434e+03 -4.61046781880220e+00 -9.18567644867241e-02  6.01486339376708e+00
        103.000000000  5.39687053302752e+03 -1.41922353069804e+03  4.12464210686992e+03 -4.61691521348302e+00 -9.01620617285419e-02  6.00995505817965e+00
        104.000000000  5.39225039639470e+03 -1.41931284535846e+03  4.13064960476337e+03 -4.62335714036073e+00 -8.84672393445529e-02  6.00503953073276e+00
        105.000000000  5.38762382057210e+03 -1.41940046513753e+03  4.13665218353585e+03 -4.62979359169502e+00 -8.67722993491745e-02  6.00011681715582e+00
        106.000000000  5.38299081103920e+03 -1.41948638991863e+03  4.14264983600405e+03 -4.63622455975148e+00 -8.50772437571155e-02  5.99518692318712e+00
        107.000000000  5.37835137328298e+03 -1.41957061958718e+03  4.14864255499062e+03 -4.64265003680203e+00 -8.33820745832528e-02  5.99024985457350e+00
        108.000000000  5.37370551279850e+03 -1.41965315403061e+03  4.15463033332356e+03 -4.64907001512430e+00 -8.16867938428013e-02  5.98530561707086e+00
        109.000000000  5.36905323508823e+03 -1.41973399313835e+03  4.16061316383703e+03 -4.65548448700251e+00 -7.99914035510923e-02  5.98035421644344e+00
        110.000000000  5.36439454566252e+03 -1.41981313680187e+03  4.16659103937069e+03 -4.66189344472674e+00 -7.82959057237437e-02  5.97539565846444e+00
        111.000000000  5.35972945003941e+03 -1.41989058491463e+03  4.17256395277008e+03 -4.66829688059331e+00 -7.66003023765759e-02  5.97042994891566e+00
        112.000000000  5.35505795374458e+03 -1.41996633737212e+03  4.17853189688653e+03 -4.67469478690476e+00 -7.49045955256200e-02  5.96545709358758e+00
        113.000000000  5.35038006231140e+03 -1.42004039407185e+03  4.18449486457720e+03 -4.68108715596985e+00 -7.32087871870962e-02  5.96047709827932e+00
        114.000000000  5.34569578128095e+03 -1.42011275491333e+03  4.19045284870503e+03 -4.68747398010347e+00 -7.15128793774605e-02  5.95548996879872e+00
        115.000000000  5.34100511620206e+03 -1.42018341979812e+03  4.19640584213868e+03 -4.69385525162664e+00 -6.98168741134051e-02  5.95049571096239e+00
        116.000000000  5.33630807263115e+03 -1.42025238862975e+03  4.20235383775275e+03 -4.70023096286672e+00 -6.81207734117871e-02  5.94549433059546e+00
        117.000000000  5.33160465613225e+03 -1.42031966131380e+03  4.20829682842771e+03 -4.70660110615733e+00 -6.64245792896562e-02  5.94048583353172e+00
        118.000000000  5.32689487227737e+03 -1.42038523775786e+03  4.21423480704952e+03 -4.71296567383795e+00 -6.47282937643725e-02  5.93547022561391e+00
        119.000000000  5.32217872664572e+03 -1.42044911787153e+03  4.22016776651053e+03 -4.71932465825486e+00 -6.30319188533462e-02  5.93044751269295e+00
        120.000000000  5.31745622482456e+03 -1.42051130156644e+03  4.22609569970844e+03 -4.72567805176009e+00 -6.13354565743080e-02  5.92541770062882e+00
        121.000000000  5.31272737240845e+03 -1.42057178875623e+03  4.23201859954729e+03 -4.73202584671240e+00 -5.96389089450650e-02  5.92038079528979e+00
        122.000000000  5.30799217499992e+03 -1.42063057935655e+03  4.23793645893650e+03 -4.73836803547633e+00 -5.79422779837514e-02  5.91533680255312e+00
        123.000000000  5.30325063820880e+03 -1.42068767328509e+03  4.24384927079185e+03 -4.74470461042319e+00 -5.62455657085609e-02  5.91028572830431e+00
    END EphemerisTimePosVel
END Ephemeris
